OBJECT C                
1 57582U 23117C   24304.14645475  .00025341  00000+0  11834-2 0  9993
2 57582  97.4741  14.5833 0010110 177.1668 182.9626 15.19757579 67658
